NORAD_CAT_ID,OBJECT_NAME,OBJECT_TYPE,EPOCH,MEAN_MOTION,ECCENTRICITY,INCLINATION,RA_OF_ASC_NODE,ARG_OF_PERICENTER,MEAN_ANOMALY,BSTAR,MEAN_MOTION_DOT,MEAN_MOTION_DDOT,TLE_LINE0,TLE_LINE1,TLE_LINE2,SEMIMAJOR_AXIS,PERIOD,APOGEE,PERIGEE,DECAYED
52620.0,STARLINK-3975,PAYLOAD,2024-06-14 11:35:36,15.0884068,0.0001038,53.2149,246.6955,98.8573,261.2537,2.4599e-05,1.04e-06,0.0,0 STARLINK-3975,1 52620U 22052Y   24166.48306404  .00000104  00000-0  24599-4 0  9992,2 52620  53.2149 246.6955 0001038  98.8573 261.2537 15.08840680115182,6917.878,95.438,540.461,539.025,0.0
52620.0,STARLINK-3975,PAYLOAD,2024-06-14 22:43:18,15.08841835,0.0001062,53.2142,244.6129,103.4725,256.6386,0.00013251,1.822e-05,0.0,0 STARLINK-3975,1 52620U 22052Y   24166.94674454  .00001822  00000-0  13251-3 0  9996,2 52620  53.2142 244.6129 0001062 103.4725 256.6386 15.08841835115256,6917.875,95.437,540.474,539.005,0.0
52620.0,STARLINK-3975,PAYLOAD,2024-06-15 11:26:23,15.08849317,0.0001141,53.2144,242.2336,111.8435,248.2679,0.00021235,3.094e-05,0.0,0 STARLINK-3975,1 52620U 22052Y   24167.47666097  .00003094  00000-0  21235-3 0  9993,2 52620  53.2144 242.2336 0001141 111.8435 248.2679 15.08849317115335,6917.852,95.437,540.506,538.928,0.0
52620.0,STARLINK-3975,PAYLOAD,2024-06-15 22:34:05,15.08848334,9.6e-05,53.2139,240.1542,92.6646,267.4456,0.0002224,3.254e-05,0.0,0 STARLINK-3975,1 52620U 22052Y   24167.94034092  .00003254  00000-0  22240-3 0  9994,2 52620  53.2139 240.1542 0000960  92.6646 267.4456 15.08848334115405,6917.855,95.437,540.384,539.056,0.0
52620.0,STARLINK-3975,PAYLOAD,2024-06-16 11:17:10,15.08846454,0.000116,53.2144,237.7761,92.5084,267.604,0.00010791,1.43e-05,0.0,0 STARLINK-3975,1 52620U 22052Y   24168.47026164  .00001430  00000-0  10791-3 0  9996,2 52620  53.2144 237.7761 0001160  92.5084 267.6040 15.08846454115484,6917.861,95.437,540.528,538.923,0.0
52620.0,STARLINK-3975,PAYLOAD,2024-06-17 20:40:17,15.08836499,0.0001232,53.2163,231.5323,95.3525,264.7607,-1.3739e-06,-3.1e-06,0.0,0 STARLINK-3975,1 52620U 22052Y   24169.86130911 -.00000310  00000-0 -13739-5 0  9991,2 52620  53.2163 231.5323 0001232  95.3525 264.7607 15.08836499115690,6917.891,95.438,540.608,538.904,0.0
52620.0,STARLINK-3975,PAYLOAD,2024-06-18 10:58:45,15.08837188,0.0001167,53.2157,228.8557,94.2406,265.872,3.4013e-05,2.53e-06,0.0,0 STARLINK-3975,1 52620U 22052Y   24170.45746834  .00000253  00000-0  34013-4 0  9996,2 52620  53.2157 228.8557 0001167  94.2406 265.8720 15.08837188116161,6917.889,95.438,540.561,538.947,0.0
52620.0,STARLINK-3975,PAYLOAD,2024-06-18 20:31:04,15.08827293,0.0001047,53.2152,227.0718,92.3251,267.7861,-1.056e-05,-4.56e-06,0.0,0 STARLINK-3975,1 52620U 22052Y   24170.85491742 -.00000456  00000-0 -10560-4 0  9993,2 52620  53.2152 227.0718 0001047  92.3251 267.7861 15.08827293116220,6917.919,95.438,540.509,539.06,0.0
52620.0,STARLINK-3975,PAYLOAD,2024-06-19 10:49:32,15.08836085,9.92e-05,53.2149,224.3952,90.6146,269.496,9.5756e-05,1.236e-05,0.0,0 STARLINK-3975,1 52620U 22052Y   24171.45107147  .00001236  00000-0  95756-4 0  9998,2 52620  53.2149 224.3952 0000992  90.6146 269.4960 15.08836085116316,6917.892,95.438,540.444,539.071,0.0
52620.0,STARLINK-3975,PAYLOAD,2024-06-20 12:15:42,15.08844904,9.84e-05,53.2144,219.6365,79.0726,281.0377,0.00010534,1.389e-05,0.0,0 STARLINK-3975,1 52620U 22052Y   24172.51090697  .00001389  00000-0  10534-3 0  9996,2 52620  53.2144 219.6365 0000984  79.0726 281.0377 15.08844904116098,6917.865,95.437,540.411,539.05,0.0
52620.0,STARLINK-3975,PAYLOAD,2024-06-21 12:06:29,15.08842807,0.0001121,53.2154,215.1773,93.3966,266.7155,4.3759e-05,4.09e-06,0.0,0 STARLINK-3975,1 52620U 22052Y   24173.50451091  .00000409  00000-0  43759-4 0  9993,2 52620  53.2154 215.1773 0001121  93.3966 266.7155 15.08842807116625,6917.872,95.437,540.512,538.961,0.0
52620.0,STARLINK-3975,PAYLOAD,2024-06-22 08:46:30,15.08840002,0.0001482,53.2171,211.303,66.733,293.3818,-2.058e-06,-3.21e-06,0.0,0 STARLINK-3975,1 52620U 22052Y   24174.36563466 -.00000321  00000-0 -20580-5 0  9991,2 52620  53.2171 211.3030 0001482  66.7330 293.3818 15.08840002116758,6917.88,95.438,540.771,538.72,0.0
52620.0,STARLINK-3975,PAYLOAD,2024-06-23 08:37:17,15.08844398,0.0001179,53.2157,206.8495,86.7311,273.3816,7.0771e-05,8.39e-06,0.0,0 STARLINK-3975,1 52620U 22052Y   24175.35922783  .00000839  00000-0  70771-4 0  9990,2 52620  53.2157 206.8495 0001179  86.7311 273.3816 15.08844398116905,6917.867,95.437,540.548,538.916,0.0
52620.0,STARLINK-3975,PAYLOAD,2024-06-24 06:52:41,15.08839095,0.0001196,53.216,202.6876,97.11,263.0028,2.0242e-05,3.4e-07,0.0,0 STARLINK-3975,1 52620U 22052Y   24176.28659188  .00000034  00000-0  20242-4 0  9994,2 52620  53.2160 202.6876 0001196  97.1100 263.0028 15.08839095117042,6917.883,95.438,540.576,538.921,0.0
52620.0,STARLINK-3975,PAYLOAD,2024-06-25 09:54:14,15.08839558,0.0001149,53.2149,197.6316,86.8384,273.274,1.6449e-06,-2.62e-06,0.0,0 STARLINK-3975,1 52620U 22052Y   24177.41267220 -.00000262  00000-0  16449-5 0  9991,2 52620  53.2149 197.6316 0001149  86.8384 273.2740 15.08839558117215,6917.882,95.438,540.542,538.952,0.0
52620.0,STARLINK-3975,PAYLOAD,2024-06-26 08:09:38,15.08840018,0.000112,53.2148,193.4674,87.0456,273.0664,5.1756e-05,5.36e-06,0.0,0 STARLINK-3975,1 52620U 22052Y   24178.34003067  .00000536  00000-0  51756-4 0  9993,2 52620  53.2148 193.4674 0001120  87.0456 273.0664 15.08840018116975,6917.88,95.438,540.52,538.971,0.0
52620.0,STARLINK-3975,PAYLOAD,2024-06-27 11:11:12,15.08834267,0.0001129,53.2147,188.4127,83.338,276.7741,1.1975e-05,-9.7e-07,0.0,0 STARLINK-3975,1 52620U 22052Y   24179.46611941 -.00000097  00000-0  11975-4 0  9995,2 52620  53.2147 188.4127 0001129  83.3380 276.7741 15.08834267117522,6917.898,95.438,540.544,538.982,0.0
52620.0,STARLINK-3975,PAYLOAD,2024-06-27 17:32:45,15.08835312,0.0001115,53.2145,187.2232,83.6153,276.4966,1.9468e-05,2.2e-07,0.0,0 STARLINK-3975,1 52620U 22052Y   24179.73107929  .00000022  00000-0  19468-4 0  9993,2 52620  53.2145 187.2232 0001115  83.6153 276.4966 15.08835312117180,6917.895,95.438,540.531,538.988,0.0
52620.0,STARLINK-3975,PAYLOAD,2024-06-28 07:51:13,15.08841308,0.0001056,53.2143,184.5467,84.8765,275.2348,2.1186e-05,4.9e-07,0.0,0 STARLINK-3975,1 52620U 22052Y   24180.32723707  .00000049  00000-0  21186-4 0  9997,2 52620  53.2143 184.5467 0001056  84.8765 275.2348 15.08841308117277,6917.876,95.437,540.472,539.011,0.0
52620.0,STARLINK-3975,PAYLOAD,2024-06-29 09:17:22,15.08848843,0.0001108,53.2144,179.7888,85.0291,275.0828,0.00016084,2.273e-05,0.0,0 STARLINK-3975,1 52620U 22052Y   24181.38706879  .00002273  00000-0  16084-3 0  9996,2 52620  53.2144 179.7888 0001108  85.0291 275.0828 15.08848843117818,6917.853,95.437,540.485,538.952,0.0
52620.0,STARLINK-3975,PAYLOAD,2024-06-29 17:14:19,15.08840139,0.0001085,53.2135,178.3011,90.2029,269.9087,7.0259e-05,8.31e-06,0.0,0 STARLINK-3975,1 52620U 22052Y   24181.71827553  .00000831  00000-0  70259-4 0  9999,2 52620  53.2135 178.3011 0001085  90.2029 269.9087 15.08840139117866,6917.88,95.438,540.496,538.994,0.0
52620.0,STARLINK-3975,PAYLOAD,2024-06-30 09:08:10,15.08837792,0.000108,53.214,175.3262,117.3672,242.743,-6.2306e-06,-3.87e-06,0.0,0 STARLINK-3975,1 52620U 22052Y   24182.38067937 -.00000387  00000-0 -62306-5 0  9998,2 52620  53.2140 175.3262 0001080 117.3672 242.7430 15.08837792117960,6917.887,95.438,540.499,539.005,0.0
52620.0,STARLINK-3975,PAYLOAD,2024-06-30 17:05:06,15.08841165,0.0001088,53.2143,173.8406,108.731,251.3801,2.4035e-05,9.5e-07,0.0,0 STARLINK-3975,1 52620U 22052Y   24182.71187677  .00000095  00000-0  24035-4 0  9999,2 52620  53.2143 173.8406 0001088 108.7310 251.3801 15.08841165117638,6917.877,95.437,540.494,538.989,0.0
52620.0,STARLINK-3975,PAYLOAD,2024-07-01 04:12:47,15.08846707,0.0001218,53.2153,171.7579,101.4223,258.6906,3.5212e-05,2.73e-06,0.0,0 STARLINK-3975,1 52620U 22052Y   24183.17555285  .00000273  00000-0  35212-4 0  9991,2 52620  53.2153 171.7579 0001218 101.4223 258.6906 15.08846707118088,6917.86,95.437,540.567,538.882,0.0
52620.0,STARLINK-3975,PAYLOAD,2024-07-01 08:58:57,15.08844138,0.000111,53.215,170.8668,97.6191,262.4927,9.0866e-05,1.159e-05,0.0,0 STARLINK-3975,1 52620U 22052Y   24183.37427236  .00001159  00000-0  90866-4 0  9997,2 52620  53.2150 170.8668 0001110  97.6191 262.4927 15.08844138117738,6917.868,95.437,540.501,538.965,0.0
52620.0,STARLINK-3975,PAYLOAD,2024-07-02 05:38:58,15.08832637,0.0001114,53.215,167.0004,91.9583,268.1537,5.8288e-05,6.4e-06,0.0,0 STARLINK-3975,1 52620U 22052Y   24184.23540253  .00000640  00000-0  58288-4 0  9994,2 52620  53.2150 167.0004 0001114  91.9583 268.1537 15.08832637118244,6917.903,95.438,540.539,538.997,0.0
52620.0,STARLINK-3975,PAYLOAD,2024-07-02 08:49:45,15.08829313,0.0001058,53.2149,166.4057,92.2511,267.8602,0.00010572,1.395e-05,0.0,0 STARLINK-3975,1 52620U 22052Y   24184.36788353  .00001395  00000-0  10572-3 0  9994,2 52620  53.2149 166.4057 0001058  92.2511 267.8602 15.08829313117880,6917.913,95.438,540.51,539.046,0.0
52620.0,STARLINK-3975,PAYLOAD,2024-07-03 08:40:31,15.08843319,0.0001132,53.2151,161.9456,85.8748,274.2374,1.8999e-05,1.5e-07,0.0,0 STARLINK-3975,1 52620U 22052Y   24185.36147881  .00000015  00000-0  18999-4 0  9990,2 52620  53.2151 161.9456 0001132  85.8748 274.2374 15.08843319118419,6917.87,95.437,540.518,538.952,0.0
52620.0,STARLINK-3975,PAYLOAD,2024-07-03 15:02:04,15.08842681,0.0001193,53.215,160.7565,87.3718,272.7411,3.9423e-05,3.4e-06,0.0,0 STARLINK-3975,1 52620U 22052Y   24185.62643828  .00000340  00000-0  39423-4 0  9997,2 52620  53.2150 160.7565 0001193  87.3718 272.7411 15.08842681118075,6917.872,95.437,540.562,538.912,0.0
52620.0,STARLINK-3975,PAYLOAD,2024-07-04 05:20:33,15.08834164,0.0001166,53.2147,158.0823,85.1129,274.9996,1.321e-05,-7.8e-07,0.0,0 STARLINK-3975,1 52620U 22052Y   24186.22260717 -.00000078  00000-0  13210-4 0  9991,2 52620  53.2147 158.0823 0001166  85.1129 274.9996 15.08834164118541,6917.898,95.438,540.57,538.957,0.0
